NORAD_CAT_ID,OBJECT_NAME,OBJECT_TYPE,EPOCH,MEAN_MOTION,ECCENTRICITY,INCLINATION,RA_OF_ASC_NODE,ARG_OF_PERICENTER,MEAN_ANOMALY,BSTAR,MEAN_MOTION_DOT,MEAN_MOTION_DDOT,TLE_LINE0,TLE_LINE1,TLE_LINE2,SEMIMAJOR_AXIS,PERIOD,APOGEE,PERIGEE,DECAYED
49143.0,STARLINK-3109,PAYLOAD,2024-01-11 12:11:27,14.98335602,0.0002733,70.0004,101.7466,258.6921,101.3931,-4.441e-06,-1.46e-06,0.0,0 STARLINK-3109,1 49143U 21082P   24011.50796175 -.00000146  00000-0 -44410-5 0  9993,2 49143  70.0004 101.7466 0002733 258.6921 101.3931 14.98335602128401,6950.176,96.107,573.94,570.141,0.0
49143.0,STARLINK-3109,PAYLOAD,2024-01-11 13:47:35,14.98336838,0.0002706,70.0004,101.5784,258.1862,101.8994,1.1893e-05,4.9e-07,0.0,0 STARLINK-3109,1 49143U 21082P   24011.57472030  .00000049  00000-0  11893-4 0  9999,2 49143  70.0004 101.5784 0002706 258.1862 101.8994 14.98336838129532,6950.172,96.107,573.917,570.156,0.0
49143.0,STARLINK-3109,PAYLOAD,2024-01-11 15:23:43,14.98338769,0.0002884,69.9998,101.4088,261.4557,98.6275,3.1043e-05,2.78e-06,0.0,0 STARLINK-3109,1 49143U 21082P   24011.64147816  .00000278  00000-0  31043-4 0  9991,2 49143  69.9998 101.4088 0002884 261.4557  98.6275 14.98338769129543,6950.166,96.106,574.035,570.026,0.0
49143.0,STARLINK-3109,PAYLOAD,2024-01-12 12:13:29,14.98324246,0.0002668,70.0004,99.2223,268.5012,91.5841,-4.8028e-05,-6.66e-06,0.0,0 STARLINK-3109,1 49143U 21082P   24012.50937007 -.00000666  00000-0 -48028-4 0  9990,2 49143  70.0004  99.2223 0002668 268.5012  91.5841 14.98324246128559,6950.211,96.107,573.93,570.221,0.0
49143.0,STARLINK-3109,PAYLOAD,2024-01-12 13:49:37,14.98324402,0.0002667,70.0004,99.054,268.2093,91.876,-4.5439e-05,-6.35e-06,0.0,0 STARLINK-3109,1 49143U 21082P   24012.57613007 -.00000635  00000-0 -45439-4 0  9997,2 49143  70.0004  99.0540 0002667 268.2093  91.8760 14.98324402129686,6950.21,96.107,573.929,570.222,0.0
49143.0,STARLINK-3109,PAYLOAD,2024-01-12 15:25:45,14.98325589,0.0002728,70.0003,98.8856,267.3234,92.7613,-3.9227e-05,-5.61e-06,0.0,0 STARLINK-3109,1 49143U 21082P   24012.64288911 -.00000561  00000-0 -39227-4 0  9993,2 49143  70.0003  98.8856 0002728 267.3234  92.7613 14.98325589129692,6950.207,96.107,573.968,570.176,0.0
49143.0,STARLINK-3109,PAYLOAD,2024-01-13 12:15:30,14.98333063,0.0002548,70.0002,96.6973,266.7731,93.3137,-2.0861e-05,-3.42e-06,0.0,0 STARLINK-3109,1 49143U 21082P   24013.51076506 -.00000342  00000-0 -20861-4 0  9996,2 49143  70.0002  96.6973 0002548 266.7731  93.3137 14.98333063128707,6950.183,96.107,573.819,570.278,0.0
49143.0,STARLINK-3109,PAYLOAD,2024-01-13 13:51:37,14.98335912,0.000241,70.0003,96.5292,265.1047,94.9837,-2.1719e-06,-1.19e-06,0.0,0 STARLINK-3109,1 49143U 21082P   24013.57752277 -.00000119  00000-0 -21719-5 0  9994,2 49143  70.0003  96.5292 0002410 265.1047  94.9837 14.98335912129836,6950.175,96.107,573.715,570.365,0.0
49143.0,STARLINK-3109,PAYLOAD,2024-01-14 12:17:31,14.98327541,0.0002576,70.0003,94.1705,276.2774,83.8092,0.00011945,1.332e-05,0.0,0 STARLINK-3109,1 49143U 21082P   24014.51216515  .00001332  00000-0  11945-3 0  9993,2 49143  70.0003  94.1705 0002576 276.2774  83.8092 14.98327541128852,6950.2,96.107,573.856,570.275,0.0
49143.0,STARLINK-3109,PAYLOAD,2024-01-14 13:53:39,14.98329298,0.0002555,70.0004,94.0023,276.8683,83.2186,0.0001384,1.559e-05,0.0,0 STARLINK-3109,1 49143U 21082P   24014.57892373  .00001559  00000-0  13840-3 0  9998,2 49143  70.0004  94.0023 0002555 276.8683  83.2186 14.98329298129981,6950.195,96.107,573.836,570.284,0.0
49143.0,STARLINK-3109,PAYLOAD,2024-01-14 15:29:47,14.98325977,0.0002288,70.0005,93.8342,273.6416,86.4482,0.00025061,2.898e-05,0.0,0 STARLINK-3109,1 49143U 21082P   24014.64568353  .00002898  00000-0  25061-3 0  9999,2 49143  70.0005  93.8342 0002288 273.6416  86.4482 14.98325977129990,6950.205,96.107,573.661,570.48,0.0
49143.0,STARLINK-3109,PAYLOAD,2024-01-15 12:19:31,14.98330218,0.0002447,70.0006,91.6455,270.9453,89.1426,4.8942e-05,4.91e-06,0.0,0 STARLINK-3109,1 49143U 21082P   24015.51356363  .00000491  00000-0  48942-4 0  9993,2 49143  70.0006  91.6455 0002447 270.9453  89.1426 14.98330218129004,6950.192,96.107,573.758,570.357,0.0
49143.0,STARLINK-3109,PAYLOAD,2024-01-15 13:55:39,14.98331335,0.0002454,70.0007,91.4782,266.2148,93.873,3.0186e-05,2.67e-06,0.0,0 STARLINK-3109,1 49143U 21082P   24015.58032289  .00000267  00000-0  30186-4 0  9990,2 49143  70.0007  91.4782 0002454 266.2148  93.8730 14.98331335130130,6950.189,96.107,573.759,570.348,0.0
49143.0,STARLINK-3109,PAYLOAD,2024-01-16 12:21:33,14.98320568,0.0002491,70.0006,89.1214,255.7185,104.3697,-7.3283e-05,-9.67e-06,0.0,0 STARLINK-3109,1 49143U 21082P   24016.51497239 -.00000967  00000-0 -73283-4 0  9998,2 49143  70.0006  89.1214 0002491 255.7185 104.3697 14.98320568129154,6950.222,96.108,573.818,570.356,0.0
49143.0,STARLINK-3109,PAYLOAD,2024-01-16 13:57:41,14.98324015,0.000271,70.0,88.9527,264.6026,95.4824,-8.2379e-05,-1.076e-05,0.0,0 STARLINK-3109,1 49143U 21082P   24016.58173062 -.00001076  00000-0 -82379-4 0  9998,2 49143  70.0000  88.9527 0002710 264.6026  95.4824 14.98324015130288,6950.211,96.107,573.96,570.193,0.0
49143.0,STARLINK-3109,PAYLOAD,2024-01-17 12:23:33,14.98331313,0.0002855,69.9998,86.596,263.0782,97.0052,2.3255e-05,1.85e-06,0.0,0 STARLINK-3109,1 49143U 21082P   24017.51636352  .00000185  00000-0  23255-4 0  9994,2 49143  69.9998  86.5960 0002855 263.0782  97.0052 14.98331313129309,6950.189,96.107,574.038,570.07,0.0
49143.0,STARLINK-3109,PAYLOAD,2024-01-17 13:59:41,14.98332649,0.0002841,69.9999,86.428,261.6973,98.3863,3.7365e-05,3.53e-06,0.0,0 STARLINK-3109,1 49143U 21082P   24017.58312224  .00000353  00000-0  37365-4 0  9994,2 49143  69.9999  86.4280 0002841 261.6973  98.3863 14.98332649130438,6950.185,96.107,574.024,570.075,0.0
49143.0,STARLINK-3109,PAYLOAD,2024-01-18 12:25:34,14.98331664,0.0002814,70.0,84.0719,259.8847,100.1994,0.00016103,1.829e-05,0.0,0 STARLINK-3109,1 49143U 21082P   24018.51775949  .00001829  00000-0  16103-3 0  9990,2 49143  70.0000  84.0719 0002814 259.8847 100.1994 14.98331664129457,6950.188,96.107,574.009,570.097,0.0
49143.0,STARLINK-3109,PAYLOAD,2024-01-18 14:01:42,14.98332847,0.0002806,70.0001,83.9038,259.5265,100.5578,0.0001726,1.967e-05,0.0,0 STARLINK-3109,1 49143U 21082P   24018.58451838  .00001967  00000-0  17260-3 0  9993,2 49143  70.0001  83.9038 0002806 259.5265 100.5578 14.98332847130584,6950.184,96.107,573.999,570.099,0.0
49143.0,STARLINK-3109,PAYLOAD,2024-01-19 14:03:43,14.98331947,0.0002655,70.0004,81.3798,259.31,100.776,1.9297e-05,1.37e-06,0.0,0 STARLINK-3109,1 49143U 21082P   24019.58592137  .00000137  00000-0  19297-4 0  9993,2 49143  70.0004  81.3798 0002655 259.3100 100.7760 14.98331947130732,6950.187,96.107,573.897,570.207,0.0
49143.0,STARLINK-3109,PAYLOAD,2024-01-20 14:05:44,14.98330151,0.0002606,70.0004,78.8548,260.4119,99.6746,-4.9512e-05,-6.84e-06,0.0,0 STARLINK-3109,1 49143U 21082P   24020.58732356 -.00000684  00000-0 -49512-4 0  9996,2 49143  70.0004  78.8548 0002606 260.4119  99.6746 14.98330151130887,6950.192,96.107,573.869,570.246,0.0
49143.0,STARLINK-3109,PAYLOAD,2024-01-21 06:07:05,14.98327426,0.0002624,70.0002,77.1716,263.677,96.409,-3.8928e-06,-1.39e-06,0.0,0 STARLINK-3109,1 49143U 21082P   24021.25492443 -.00000139  00000-0 -38928-5 0  9996,2 49143  70.0002  77.1716 0002624 263.6770  96.4090 14.98327426130981,6950.201,96.107,573.89,570.242,0.0
49143.0,STARLINK-3109,PAYLOAD,2024-01-21 14:07:45,14.98328101,0.0002607,70.0002,76.3299,263.6401,96.4461,5.4705e-06,-2.8e-07,0.0,0 STARLINK-3109,1 49143U 21082P   24021.58872419 -.00000028  00000-0  54705-5 0  9994,2 49143  70.0002  76.3299 0002607 263.6401  96.4461 14.98328101129914,6950.199,96.107,573.876,570.252,0.0
49143.0,STARLINK-3109,PAYLOAD,2024-01-22 06:09:06,14.98330518,0.0002723,69.9999,74.6464,261.9119,98.1731,5.9087e-05,6.12e-06,0.0,0 STARLINK-3109,1 49143U 21082P   24022.25632123  .00000612  00000-0  59087-4 0  9990,2 49143  69.9999  74.6464 0002723 261.9119  98.1731 14.98330518131138,6950.191,96.107,573.949,570.164,0.0
49143.0,STARLINK-3109,PAYLOAD,2024-01-22 12:33:38,14.9833139,0.0002706,70.0,73.9729,260.9605,99.1248,6.708e-05,7.08e-06,0.0,0 STARLINK-3109,1 49143U 21082P   24022.52336033  .00000708  00000-0  67080-4 0  9999,2 49143  70.0000  73.9729 0002706 260.9605  99.1248 14.98331390131177,6950.189,96.107,573.934,570.173,0.0
49143.0,STARLINK-3109,PAYLOAD,2024-01-23 06:11:07,14.9833073,0.00027,69.9999,72.121,260.4446,99.6408,4.9989e-05,5.04e-06,0.0,0 STARLINK-3109,1 49143U 21082P   24023.25772084  .00000504  00000-0  49989-4 0  9992,2 49143  69.9999  72.1210 0002700 260.4446  99.6408 14.98330730131281,6950.191,96.107,573.932,570.179,0.0
49143.0,STARLINK-3109,PAYLOAD,2024-01-23 10:59:31,14.98331932,0.0002669,70.0,71.616,258.9367,101.1492,6.3243e-05,6.62e-06,0.0,0 STARLINK-3109,1 49143U 21082P   24023.45799950  .00000662  00000-0  63243-4 0  9999,2 49143  70.0000  71.6160 0002669 258.9367 101.1492 14.98331932130199,6950.187,96.107,573.907,570.197,0.0
49143.0,STARLINK-3109,PAYLOAD,2024-01-23 12:35:39,14.9833196,0.000268,69.9999,71.4476,260.4409,99.6447,6.1928e-05,6.46e-06,0.0,0 STARLINK-3109,1 49143U 21082P   24023.52475962  .00000646  00000-0  61928-4 0  9991,2 49143  69.9999  71.4476 0002680 260.4409  99.6447 14.98331960131327,6950.187,96.107,573.914,570.189,0.0
49143.0,STARLINK-3109,PAYLOAD,2024-01-24 11:01:32,14.98327168,0.0002593,70.0003,69.0915,253.75,106.3374,-3.4312e-05,-5.02e-06,0.0,0 STARLINK-3109,1 49143U 21082P   24024.45940505 -.00000502  00000-0 -34312-4 0  9994,2 49143  70.0003  69.0915 0002593 253.7500 106.3374 14.98327168130348,6950.202,96.107,573.869,570.264,0.0
49143.0,STARLINK-3109,PAYLOAD,2024-01-24 12:37:40,14.98327062,0.0002598,70.0003,68.923,254.6756,105.4116,-3.5184e-05,-5.13e-06,0.0,0 STARLINK-3109,1 49143U 21082P   24024.52616533 -.00000513  00000-0 -35184-4 0  9993,2 49143  70.0003  68.9230 0002598 254.6756 105.4116 14.98327062131476,6950.202,96.107,573.873,570.261,0.0
